COSMOS 2433 (720)       
1 32275U 07052A   22329.57650214 -.00000040  00000+0  00000+0 0  9994
2 32275  66.0695 359.3260 0005078 242.6061 146.5047  2.13104263117404
COSMOS 2432 (719)       
1 32276U 07052B   22328.35158272 -.00000035  00000+0  00000+0 0  9991
2 32276  66.0846 359.4701 0010130 313.2504 163.9925  2.13103420117374
COSMOS 2434 (721)       
1 32393U 07065A   22329.45893089  .00000042  00000+0  00000+0 0  9996
2 32393  64.3617 235.9337 0002758  68.6405 120.3846  2.13103217116105
COSMOS 2436 (723)       
1 32395U 07065C   22329.33329652  .00000042  00000+0  00000+0 0  9995
2 32395  64.3697 235.9965 0016130 359.4555 228.9291  2.13102888116032
COSMOS 2456 (730)       
1 36111U 09070A   22329.23174426  .00000054  00000+0  00000+0 0  9992
2 36111  64.3975 115.5318 0001262 334.5027 203.5732  2.13099206100765
COSMOS 2457 (733)       
1 36112U 09070B   22329.10031509  .00000054  00000+0  00000+0 0  9993
2 36112  64.3819 115.4086 0006803 150.8293  54.9808  2.13101392100766
COSMOS 2460 (732)       
1 36402U 10007C   22329.55581374 -.00000039  00000+0  00000+0 0  9990
2 36402  65.9392 358.0884 0002193 248.5543 291.8660  2.13106479 99129
COSMOS 2464 (736)       
1 37139U 10041C   22329.39563201  .00000043  00000+0  00000+0 0  9991
2 37139  63.9617 234.9315 0030012   9.6584 347.8666  2.13100920 95172
COSMOS 2476 (744)       
1 37867U 11064A   22329.55332075  .00000057  00000+0  00000+0 0  9991
2 37867  64.6832 116.9395 0020811 229.9726 101.6690  2.13101802 86112
COSMOS 2477 (745)       
1 37868U 11064B   22329.03532904  .00000058  00000+0  00000+0 0  9999
2 37868  64.6910 117.0242 0018146 230.2274 242.0689  2.13101744 86061
COSMOS 2475 (743)       
1 37869U 11064C   22329.19780808  .00000057  00000+0  00000+0 0  9994
2 37869  64.6989 117.0282 0021842 249.9089 305.2279  2.13101933 86078
COSMOS 2485 (747)       
1 39155U 13019A   22329.52902685  .00000058  00000+0  00000+0 0  9993
2 39155  64.8453 117.4031 0021385 226.0195 131.3905  2.13101900 74589
COSMOS 2492 (754)       
1 39620U 14012A   22329.49250477 -.00000039  00000+0  00000+0 0  9995
2 39620  65.8227 357.7494 0013607 312.3417  51.3745  2.13103293 67540
COSMOS 2500 (755)       
1 40001U 14032A   22329.19452102 -.00000038  00000+0  00000+0 0  9997
2 40001  65.7648 357.6083 0008281 213.4900 139.8218  2.13102417 65748
COSMOS 2501 (702K)      
1 40315U 14075A   22328.27253387  .00000042  00000+0  00000+0 0  9998
2 40315  63.6673 235.5781 0017942 209.2151 325.5614  2.13101366 62131
COSMOS 2514 (751)       
1 41330U 16008A   22328.96320010 -.00000037  00000+0  00000+0 0  9993
2 41330  65.5631 357.2671 0012100 220.4771 139.4961  2.13102525 52918
COSMOS 2516 (753)       
1 41554U 16032A   22329.08568384  .00000042  00000+0  00000+0 0  9995
2 41554  63.8927 235.8721 0014226 214.3848 145.5846  2.13106319 50520
COSMOS 2522 (752)       
1 42939U 17055A   22329.51428427  .00000041  00000+0  00000+0 0  9999
2 42939  64.1277 236.2984 0007511 246.3391 296.5945  2.13102112 40289
COSMOS 2527 (756)       
1 43508U 18053A   22328.07028521  .00000062  00000+0  00000+0 0  9995
2 43508  65.0082 117.4855 0007593 212.3481 334.8255  2.13102518 34548
COSMOS 2529 (757)       
1 43687U 18086A   22329.57688148  .00000041  00000+0  00000+0 0  9999
2 43687  64.3430 236.6552 0009598 269.3942 277.0634  2.13102174 31593
COSMOS 2534 (758)       
1 44299U 19030A   22329.39841196  .00000041  00000+0  00000+0 0  9993
2 44299  64.4140 236.5613 0012273 289.2813 254.6777  2.13101924 27238
COSMOS 2544 (759)       
1 44850U 19088A   22328.73846289  .00000060  00000+0  16595+1 0  9992
2 44850  64.9942 117.3122 0010786 249.2181 133.8928  2.13102333 22997
COSMOS 2545 (760)       
1 45358U 20018A   22329.33741133 -.00000040  00000+0  00000+0 0  9992
2 45358  64.9016 357.7318 0011440 246.6729  85.2086  2.13102752 20951
COSMOS 2547 (705K)      
1 46805U 20075A   22329.13585325  .00000043  00000+0  00000+0 0  9992
2 46805  64.6392 236.0424 0006897 247.2257 143.5446  2.13102967 16202
COSMOS 2557 (706K)      
1 52984U 22075A   22329.30779098 -.00000042  00000+0  10000-3 0  9995
2 52984  64.8079 359.9241 0013543 278.4438 121.6171  2.13101855  3007
COSMOS 2559 (707K)      
1 54031U 22130A   22329.19167611 -.00000041  00000+0  00000+0 0  9995
2 54031  64.7786   0.0659 0007601 226.9969 129.3425  2.13101553   973
